OBJECT_NAME,OBJECT_ID,EPOCH,MEAN_MOTION,ECCENTRICITY,INCLINATION,RA_OF_ASC_NODE,ARG_OF_PERICENTER,MEAN_ANOMALY,EPHEMERIS_TYPE,CLASSIFICATION_TYPE,NORAD_CAT_ID,ELEMENT_SET_NO,REV_AT_EPOCH,BSTAR,MEAN_MOTION_DOT,MEAN_MOTION_DDOT
CUBEBUG-2 (LO-74),2013-066AA,2026-07-07T19:51:49.679712,14.93937818,.0056222,97.8911,137.8959,320.5127,39.2002,0,U,39440,999,68007,.20347E-3,.217E-4,0
FUNCUBE-1 (AO-73),2013-066AE,2026-07-06T21:00:48.915360,15.09744377,.00375361,97.8282,159.7358,134.9216,225.5068,0,U,39444,999,68263,.37306054E-3,.6051E-4,0
UWE-3,2013-066AG,2026-07-07T08:00:24.462144,14.97168353,.00474974,97.8699,144.5465,252.0164,107.5878,0,U,39446,999,68059,.18296688E-3,.2099E-4,0
UNISAT-6,2014-033C,2026-07-07T08:53:02.476320,14.88345132,.0044829,97.7902,340.7302,3.7872,356.3675,0,U,40012,999,64916,.23037182E-3,.2115E-4,0
DUCHIFAT-1,2014-033M,2026-07-07T17:08:34.795104,15.69460048,.0001383,98.0443,250.8323,276.1488,83.9614,0,U,40021,999,65896,.89743E-3,.106366E-2,0
QB50P1,2014-033R,2026-07-06T23:39:44.400384,15.18579991,.00097754,98.0969,200.5237,149.2946,210.8860,0,U,40025,999,65603,.32909575E-3,.6736E-4,0
LILACSAT-2,2015-049K,2026-07-07T20:13:31.154016,15.52168050,.0007796,97.4629,226.4757,163.6811,196.4694,0,U,40908,999,59895,.22729E-3,.13676E-3,0
FOX-1A (AO-85),2015-058D,2026-07-07T12:59:41.834688,14.91059408,.0131774,64.7734,215.7243,48.7119,312.5249,0,U,40967,999,11660,.17268747E-3,.1843E-4,0
CAS-2T & KS-1Q,2016-066G,2026-07-07T17:47:00.638304,14.44758704,.0342599,98.3815,264.2420,67.3254,296.3779,0,U,41847,999,50776,.16379E-3,.1117E-4,0
RADFXSAT (FOX-1B),2017-073E,2026-07-07T01:12:49.095936,15.12990086,.01481597,97.4678,54.8599,259.9195,98.5293,0,U,43017,999,46839,.24355884E-3,.5556E-4,0
DIWATA-2B,2018-084H,2026-07-07T20:13:09.528096,15.00545705,.0013061,98.1216,25.9536,106.5803,253.6855,0,U,43678,999,41931,.17908E-3,.2197E-4,0
ES'HAIL 2,2018-090A,2026-07-07T17:17:25.704096,1.00272623,.0002315,0.0155,301.5408,210.7205,58.5928,0,U,43700,999,2788,0,.159E-5,0
FOX-1CLIFF (AO-95),2018-099N,2026-07-07T17:17:43.536192,15.27165939,.0006948,97.4372,248.8956,272.0109,88.0334,0,U,43770,999,41635,.29568E-3,.7807E-4,0
ITASAT,2018-099AE,2026-07-06T17:11:00.697920,15.19312324,.00107233,97.4015,238.8395,284.8338,75.1709,0,U,43786,999,41587,.22247843E-3,.4636E-4,0
JY1SAT (JO-97),2018-099AX,2026-07-07T17:01:09.941376,15.34348143,.0006127,97.4118,251.6223,181.6726,178.4497,0,U,43803,999,41677,.35617E-3,.11777E-3,0
UWE-4,2018-111E,2026-07-07T18:54:07.121088,15.47469356,.0004963,97.5840,118.1465,225.8945,134.1896,0,U,43880,999,41396,.47256E-3,.24202E-3,0
TIANYAN 01,2019-093C,2026-07-07T20:15:30.847392,14.86555771,.0014249,97.7519,260.5724,25.0804,335.1102,0,U,44881,999,35448,.10344E-3,.864E-5,0
RS-44 & BREEZE-KM R/B,2019-096E,2026-07-07T17:21:17.421120,12.79748976,.0218593,82.5237,326.0585,96.3767,266.2275,0,U,44909,999,30497,.23712E-4,.19E-6,0
SALSAT,2020-068K,2026-07-06T23:06:33.434208,15.30092809,.0008388,97.8858,192.2352,224.1445,135.9125,0,U,46495,999,31838,.20798571E-3,.5977E-4,0
XW-3 (CAS-9),2021-131B,2026-07-07T21:07:31.807200,14.41377368,.0004988,98.4980,281.1589,48.5653,311.5964,0,U,50466,999,23809,.97662E-4,.272E-5,0
GREENCUBE (IO-117),2022-080E,2026-07-07T06:16:24.697344,6.42583238,.00089686,70.1426,291.2647,285.4121,74.5548,0,U,53109,999,9335,0,-.3E-7,0
UMKA 1 (RS40S),2023-091G,2026-07-07T18:03:18.074592,15.21065886,.0013692,97.5038,247.3721,53.6415,306.6082,0,U,57172,999,16713,.1864E-3,.408E-4,0
CUBESX-HSE 3 (RS42S),2023-091N,2026-07-07T18:07:58.255104,15.31757457,.0010473,97.5079,254.6086,28.2340,331.9466,0,U,57178,999,16757,.29234E-3,.89E-4,0
MONITOR-3 (RS58S),2023-091Q,2026-07-07T18:15:15.679296,15.28273818,.0011798,97.5071,252.3618,35.2043,324.9974,0,U,57180,999,16743,.2496E-3,.6812E-4,0
MONITOR-4 (RS57S),2023-091S,2026-07-07T17:43:27.505056,15.28359635,.0011788,97.5065,252.3119,35.7150,324.4876,0,U,57182,999,16743,.25792E-3,.706E-4,0
MONITOR-2 (RS39S),2023-091U,2026-07-07T17:36:39.047328,15.19109298,.0012094,97.5060,246.8848,48.1286,312.0978,0,U,57184,999,16707,.15401E-3,.3169E-4,0
SVYATOBOR 1 (RS60S),2023-091X,2026-07-07T18:28:20.369280,15.26979710,.0009512,97.5077,252.7038,30.0766,330.1017,0,U,57187,999,16745,.23E-3,.6023E-4,0
VIZARD-METEO (RS38S),2023-091Z,2026-07-07T17:29:59.443872,15.36710160,.0006395,97.5078,258.6341,9.2920,350.8441,0,U,57189,999,16784,.32739E-3,.11667E-3,0
POLYTECH-UNIVERSE 3 (RS46S),2023-091AB,2026-07-07T18:11:49.129728,15.19320488,.0016647,97.5035,246.4133,61.8095,298.4818,0,U,57191,999,16707,.17154E-3,.3565E-4,0
UTMN 2 (RS27S),2023-091AP,2026-07-07T18:17:16.882080,15.32578498,.0007539,97.5075,256.2739,17.4120,342.7378,0,U,57203,999,16769,.28216E-3,.8804E-4,0
