CUBEBUG-2 (LO-74)       
1 39440U 13066AA  26188.82765833  .00002170  00000+0  20347-3 0  9991
2 39440  97.8911 137.8959 0056222 320.5127  39.2002 14.93937818680076
FUNCUBE-1 (AO-73)       
1 39444U 13066AE  26187.87556615  .00006051  00000+0  37306-3 0  9990
2 39444  97.8282 159.7358 0037536 134.9216 225.5068 15.09744377682630
UWE-3                   
1 39446U 13066AG  26188.33361646  .00002099  00000+0  18297-3 0  9998
2 39446  97.8699 144.5465 0047497 252.0164 107.5878 14.97168353680597
UNISAT-6                
1 40012U 14033C   26188.37016755  .00002115  00000+0  23037-3 0  9993
2 40012  97.7902 340.7302 0044829   3.7872 356.3675 14.88345132649166
DUCHIFAT-1              
1 40021U 14033M   26188.71429161  .00106366  00000+0  89743-3 0  9999
2 40021  98.0443 250.8323 0001383 276.1488  83.9614 15.69460048658969
QB50P1                  
1 40025U 14033R   26187.98593056  .00006736  00000+0  32910-3 0  9990
2 40025  98.0969 200.5237 0009775 149.2946 210.8860 15.18579991656036
LILACSAT-2              
1 40908U 15049K   26188.84272169  .00013676  00000+0  22729-3 0  9991
2 40908  97.4629 226.4757 0007796 163.6811 196.4694 15.52168050598956
FOX-1A (AO-85)          
1 40967U 15058D   26188.54145642  .00001843  00000+0  17269-3 0  9994
2 40967  64.7734 215.7243 0131774  48.7119 312.5249 14.91059408116607
CAS-2T & KS-1Q          
1 41847U 16066G   26188.74097961  .00001117  00000+0  16379-3 0  9999
2 41847  98.3815 264.2420 0342599  67.3254 296.3779 14.44758704507761
RADFXSAT (FOX-1B)       
1 43017U 17073E   26188.05056824  .00005556  00000+0  24356-3 0  9991
2 43017  97.4678  54.8599 0148159 259.9195  98.5293 15.12990086468393
DIWATA-2B               
1 43678U 18084H   26188.84247139  .00002197  00000+0  17908-3 0  9998
2 43678  98.1216  25.9536 0013061 106.5803 253.6855 15.00545705419315
ES'HAIL 2               
1 43700U 18090A   26188.72043639  .00000159  00000+0  00000+0 0  9994
2 43700   0.0155 301.5408 0002315 210.7205  58.5928  1.00272623 27881
FOX-1CLIFF (AO-95)      
1 43770U 18099N   26188.72064278  .00007807  00000+0  29568-3 0  9993
2 43770  97.4372 248.8956 0006948 272.0109  88.0334 15.27165939416358
ITASAT                  
1 43786U 18099AE  26187.71598030  .00004636  00000+0  22248-3 0  9991
2 43786  97.4015 238.8395 0010723 284.8338  75.1709 15.19312324415878
JY1SAT (JO-97)          
1 43803U 18099AX  26188.70914284  .00011777  00000+0  35617-3 0  9992
2 43803  97.4118 251.6223 0006127 181.6726 178.4497 15.34348143416779
UWE-4                   
1 43880U 18111E   26188.78758242  .00024202  00000+0  47256-3 0  9999
2 43880  97.5840 118.1465 0004963 225.8945 134.1896 15.47469356413966
TIANYAN 01              
1 44881U 19093C   26188.84410703  .00000864  00000+0  10344-3 0  9991
2 44881  97.7519 260.5724 0014249  25.0804 335.1102 14.86555771354488
RS-44 & BREEZE-KM R/B   
1 44909U 19096E   26188.72311830  .00000019  00000+0  23712-4 0  9999
2 44909  82.5237 326.0585 0218593  96.3767 266.2275 12.79748976304973
SALSAT                  
1 46495U 20068K   26187.96288697  .00005977  00000+0  20799-3 0  9990
2 46495  97.8858 192.2352 0008388 224.1445 135.9125 15.30092809318384
XW-3 (CAS-9)            
1 50466U 21131B   26188.88022925  .00000272  00000+0  97662-4 0  9994
2 50466  98.4980 281.1589 0004988  48.5653 311.5964 14.41377368238090
GREENCUBE (IO-117)      
1 53109U 22080E   26188.26139696 -.00000003  00000+0  00000+0 0  9999
2 53109  70.1426 291.2647 0008968 285.4121  74.5548  6.42583238 93359
UMKA 1 (RS40S)          
1 57172U 23091G   26188.75229253  .00004080  00000+0  18640-3 0  9990
2 57172  97.5038 247.3721 0013692  53.6415 306.6082 15.21065886167132
CUBESX-HSE 3 (RS42S)    
1 57178U 23091N   26188.75553536  .00008900  00000+0  29234-3 0  9996
2 57178  97.5079 254.6086 0010473  28.2340 331.9466 15.31757457167575
MONITOR-3 (RS58S)       
1 57180U 23091Q   26188.76059814  .00006812  00000+0  24960-3 0  9991
2 57180  97.5071 252.3618 0011798  35.2043 324.9974 15.28273818167436
MONITOR-4 (RS57S)       
1 57182U 23091S   26188.73851279  .00007060  00000+0  25792-3 0  9995
2 57182  97.5065 252.3119 0011788  35.7150 324.4876 15.28359635167438
MONITOR-2 (RS39S)       
1 57184U 23091U   26188.73378527  .00003169  00000+0  15401-3 0  9999
2 57184  97.5060 246.8848 0012094  48.1286 312.0978 15.19109298167075
SVYATOBOR 1 (RS60S)     
1 57187U 23091X   26188.76968020  .00006023  00000+0  23000-3 0  9994
2 57187  97.5077 252.7038 0009512  30.0766 330.1017 15.26979710167456
VIZARD-METEO (RS38S)    
1 57189U 23091Z   26188.72916023  .00011667  00000+0  32739-3 0  9997
2 57189  97.5078 258.6341 0006395   9.2920 350.8441 15.36710160167843
POLYTECH-UNIVERSE 3 (R*)
1 57191U 23091AB  26188.75820752  .00003565  00000+0  17154-3 0  9998
2 57191  97.5035 246.4133 0016647  61.8095 298.4818 15.19320488167072
UTMN 2 (RS27S)          
1 57203U 23091AP  26188.76200095  .00008804  00000+0  28216-3 0  9997
2 57203  97.5075 256.2739 0007539  17.4120 342.7378 15.32578498167690
